[{"OBJECT_NAME":"PUNCH-NFI (SMEX 15A)","OBJECT_ID":"2025-047A","EPOCH":"2026-03-09T11:19:46.605216","MEAN_MOTION":14.7465072,"ECCENTRICITY":0.00122832,"INCLINATION":97.9559,"RA_OF_ASC_NODE":255.696,"ARG_OF_PERICENTER":116.2787,"MEAN_ANOMALY":243.9685,"EPHEMERIS_TYPE":0,"CLASSIFICATION_TYPE":"U","NORAD_CAT_ID":63178,"ELEMENT_SET_NO":999,"REV_AT_EPOCH":5338,"BSTAR":0.00014970428,"MEAN_MOTION_DOT":9.5e-6,"MEAN_MOTION_DDOT":0},{"OBJECT_NAME":"CZ-6A DEB","OBJECT_ID":"2022-151LZ","EPOCH":"2026-03-09T01:15:25.634592","MEAN_MOTION":14.52942583,"ECCENTRICITY":0.00938693,"INCLINATION":98.6172,"RA_OF_ASC_NODE":119.2423,"ARG_OF_PERICENTER":248.2848,"MEAN_ANOMALY":110.8334,"EPHEMERIS_TYPE":0,"CLASSIFICATION_TYPE":"U","NORAD_CAT_ID":54573,"ELEMENT_SET_NO":999,"REV_AT_EPOCH":17448,"BSTAR":0.0011464751,"MEAN_MOTION_DOT":4.957e-5,"MEAN_MOTION_DDOT":0}]
